      2.10          N: GNSS NAV DATA                        RINEX VERSION / TYPE
fic2rin                                 08/07/2023 00:17:56 PGM / RUN BY / DATE
                                                            END OF HEADER
6  23  8  6  1 59 44.0  .569981522858D-03 -.466116034659D-11  .000000000000D+00
     .310000000000D+02  .240625000000D+02  .351050336941D-08  .254067504166D+01
     .132806599140D-05  .268754502758D-02  .110697001219D-04  .515371811676D+04
     .718400000000D+04 -.633299350739D-07  .101065795131D+01 -.316649675369D-07
     .989328204874D+00  .182500000000D+03 -.772731746145D+00 -.752567061725D-08
     .109647424398D-09  .100000000000D+01  .227400000000D+04  .000000000000D+00
     .240000000000D+01  .000000000000D+00  .372529029846D-08  .310000000000D+02
     .000000000000D+00  .400000000000D+01
14 23  8  6 10  0  0.0  .145527068526D-03  .118234311230D-10  .000000000000D+00
     .140000000000D+03  .678750000000D+02  .520664544911D-08 -.117669028949D+01
     .343285501003D-05  .347119499929D-02  .520050525665D-05  .515367465401D+04
     .360000000000D+05  .558793544769D-07 -.106369992447D+01 -.540167093277D-07
     .947838803622D+00  .269500000000D+03 -.295872415446D+01 -.855464204946D-08
     .369301097159D-09  .100000000000D+01  .227400000000D+04  .000000000000D+00
     .240000000000D+01  .000000000000D+00 -.791624188423D-08  .396000000000D+03
     .288000000000D+05  .400000000000D+01
2  23  8  6 12  0  0.0 -.568404793739D-03  .409272615798D-11  .000000000000D+00
     .820000000000D+02  .853125000000D+01  .428589281035D-08 -.229740510689D+01
     .558793544769D-06  .159468872007D-01  .103227794170D-04  .515354827881D+04
     .432000000000D+05  .126659870148D-06  .918551980966D+00  .245869159698D-06
     .967544854355D+00  .179031250000D+03 -.135972335812D+01 -.766817655319D-08
     .660741808263D-10  .100000000000D+01  .227400000000D+04  .000000000000D+00
     .240000000000D+01  .000000000000D+00 -.176951289177D-07  .820000000000D+02
     .360000000000D+05  .400000000000D+01
1  23  8  6 12  0  0.0  .169669277966D-03 -.159161572810D-11  .000000000000D+00
     .590000000000D+02  .650000000000D+01  .391623455546D-08  .130359524224D+01
     .357627868652D-06  .129083793145D-01  .109225511551D-04  .515364119148D+04
     .432000000000D+05 -.271946191788D-06  .101871655843D+01  .117346644402D-06
     .990135527919D+00  .188500000000D+03  .990420488269D+00 -.786568478020D-08
     .214294640518D-11  .100000000000D+01  .227400000000D+04  .000000000000D+00
     .340000000000D+01  .630000000000D+02  .465661287308D-08  .590000000000D+02
     .360000000000D+05  .400000000000D+01
5  23  8  6 12  0  0.0 -.137750525028D-03 -.147792889038D-11  .000000000000D+00
     .180000000000D+02  .207500000000D+02  .459912014324D-08 -.242644230955D+01
     .115111470222D-05  .608114292845D-02  .609084963799D-05  .515370714378D+04
     .432000000000D+05  .113621354103D-06  .200152558634D+01  .931322574615D-08
     .966882701060D+00  .265406250000D+03  .119985167958D+01 -.814748223248D-08
     .291440711104D-09  .100000000000D+01  .227400000000D+04  .000000000000D+00
     .240000000000D+01  .000000000000D+00 -.111758708954D-07  .180000000000D+02
     .360000000000D+05  .400000000000D+01
3  23  8  6 12  0  0.0 -.199879519641D-03  .176214598469D-10  .000000000000D+00
     .157000000000D+03  .238437500000D+02  .442768443083D-08  .114191919615D+00
     .130198895931D-05  .509204936679D-02  .553019344807D-05  .515361801338D+04
     .432000000000D+05 -.353902578354D-07  .204903767650D+01  .106170773506D-06
     .979882085782D+00  .281531250000D+03  .108321293292D+01 -.820534178542D-08
     .156435087578D-09  .100000000000D+01  .227400000000D+04  .000000000000D+00
     .240000000000D+01  .000000000000D+00  .186264514923D-08  .157000000000D+03
     .360000000000D+05  .400000000000D+01
13 23  8  6 12  0  0.0  .556691549718D-03  .477484718431D-11  .000000000000D+00
     .270000000000D+02 -.697812500000D+02  .425374861428D-08  .311644938547D+01
    -.354461371899D-05  .729629059788D-02  .835396349430D-05  .515366939926D+04
     .432000000000D+05  .745058059692D-07 -.304953817065D+01  .745058059692D-08
     .970485550836D+00  .221843750000D+03  .921501434474D+00 -.786211320286D-08
    -.336442585613D-09  .100000000000D+01  .227400000000D+04  .000000000000D+00
     .240000000000D+01  .000000000000D+00 -.111758708954D-07  .270000000000D+02
     .360000000000D+05  .400000000000D+01
12 23  8  6 12  0  0.0 -.409650150687D-03 -.454747350886D-11  .000000000000D+00
     .110000000000D+03  .630312500000D+02  .477162732886D-08 -.361126799181D-01
     .299140810966D-05  .865678465925D-02  .602751970291D-05  .515356443405D+04
     .432000000000D+05 -.109896063805D-06 -.102397619073D+01  .260770320892D-07
     .964516432529D+00  .269718750000D+03  .138868555048D+01 -.847678166341D-08
     .317513225700D-09  .100000000000D+01  .227400000000D+04  .000000000000D+00
     .340000000000D+01  .000000000000D+00 -.125728547573D-07  .110000000000D+03
     .360000000000D+05  .400000000000D+01
8  23  8  6 12  0  0.0 -.135847833008D-03 -.181898940355D-11  .000000000000D+00
     .840000000000D+02 -.377812500000D+02  .482984403953D-08 -.280313416211D+01
    -.200234353542D-05  .852245732676D-02  .607222318649D-05  .515373281097D+04
     .432000000000D+05 -.162050127983D-06 -.749817257127D-01 -.167638063431D-06
     .957883640956D+00  .264000000000D+03  .271256413433D+00 -.821641367518D-08
    -.248581783000D-09  .100000000000D+01  .227400000000D+04  .000000000000D+00
     .240000000000D+01  .000000000000D+00  .512227416039D-08  .840000000000D+02
     .360000000000D+05  .400000000000D+01
7  23  8  6 12  0  0.0  .103613827378D-03 -.109139364213D-10  .000000000000D+00
     .103000000000D+03  .239687500000D+02  .454483216765D-08  .632948609970D+00
     .134110450745D-05  .175197231583D-01  .115651637316D-04  .515373528290D+04
     .432000000000D+05 -.324100255966D-06 -.213927908753D+01  .117346644402D-06
     .950245565725D+00  .155750000000D+03 -.217838825084D+01 -.819248410699D-08
    -.800033324599D-10  .100000000000D+01  .227400000000D+04  .000000000000D+00
     .240000000000D+01  .000000000000D+00 -.111758708954D-07  .103000000000D+03
     .360000000000D+05  .400000000000D+01
6  23  8  6 12  0  0.0  .569811556488D-03 -.477484718431D-11  .000000000000D+00
     .540000000000D+02 -.656250000000D+00  .378480050928D-08  .151078488024D+01
    -.130385160446D-07  .268759974279D-02  .113546848297D-04  .515372184181D+04
     .432000000000D+05  .242143869400D-07  .101038258185D+01 -.428408384323D-07
     .989327660668D+00  .171000000000D+03 -.772961598370D+00 -.768496296670D-08
    -.382158775590D-10  .100000000000D+01  .227400000000D+04  .000000000000D+00
     .240000000000D+01  .000000000000D+00  .372529029846D-08  .540000000000D+02
     .360000000000D+05  .400000000000D+01
4  23  8  6 12  0  0.0  .117471907288D-03  .112549969344D-10  .000000000000D+00
     .103000000000D+03 -.650312500000D+02  .453090301601D-08  .308893051687D+01
    -.345893204212D-05  .248025113251D-02  .759586691856D-05  .515363606834D+04
     .432000000000D+05 -.428408384323D-07  .312955702028D+01  .745058059692D-08
     .963566613949D+00  .233875000000D+03 -.301449763560D+01 -.808819404860D-08
    -.360729311538D-09  .100000000000D+01  .227400000000D+04  .000000000000D+00
     .240000000000D+01  .000000000000D+00 -.465661287308D-08  .871000000000D+03
     .360000000000D+05  .400000000000D+01
9  23  8  6 12  0  0.0 -.936044380069D-04  .966338120634D-11  .000000000000D+00
     .420000000000D+02 -.635625000000D+02  .472983987396D-08 -.228759473729D+01
    -.336579978466D-05  .257714150939D-02  .722520053387D-05  .515356438637D+04
     .432000000000D+05  .298023223877D-07  .307233149786D+01  .763684511185D-07
     .956907113879D+00  .238781250000D+03  .193953391193D+01 -.820069873488D-08
    -.398230873629D-09  .100000000000D+01  .227400000000D+04  .000000000000D+00
     .240000000000D+01  .000000000000D+00  .931322574615D-09  .420000000000D+02
     .360000000000D+05  .400000000000D+01
10 23  8  6 12  0  0.0 -.481670722365D-04 -.159161572810D-11  .000000000000D+00
     .105000000000D+03  .142500000000D+02  .433125184260D-08 -.779948857921D+00
     .592321157455D-06  .864470016677D-02  .592507421970D-05  .515368588448D+04
     .432000000000D+05  .968575477600D-07  .204641141816D+01  .126659870148D-06
     .979601727773D+00  .276125000000D+03 -.244218405856D+01 -.814641075928D-08
     .946467995620D-10  .100000000000D+01  .227400000000D+04  .000000000000D+00
     .240000000000D+01  .000000000000D+00  .232830643654D-08  .105000000000D+03
     .360000000000D+05  .400000000000D+01
30 23  8  6 12  0  0.0 -.498624052852D-03  .295585778076D-11  .000000000000D+00
     .240000000000D+02  .283750000000D+02  .475805533496D-08  .553121794669D+00
     .154227018356D-05  .659526011441D-02  .119209289551D-04  .515379048538D+04
     .432000000000D+05 -.596046447754D-07 -.213425242640D+01  .204890966415D-06
     .935373048991D+00  .137000000000D+03 -.254652494238D+01 -.816855453880D-08
     .596453416107D-10  .100000000000D+01  .227400000000D+04  .000000000000D+00
     .240000000000D+01  .000000000000D+00  .372529029846D-08  .240000000000D+02
     .360000000000D+05  .400000000000D+01
23 23  8  6 12  0  0.0  .517917796969D-04  .454747350886D-11  .000000000000D+00
     .150000000000D+02  .143125000000D+02  .450554481688D-08  .451365593052D+00
     .609084963799D-06  .345358706545D-02  .593811273575D-05  .515366722298D+04
     .432000000000D+05  .242143869400D-07  .201884994354D+01 -.223517417908D-07
     .974726234357D+00  .269687500000D+03 -.310786447748D+01 -.819569852660D-08
     .113933317209D-09  .100000000000D+01  .227400000000D+04  .000000000000D+00
     .240000000000D+01  .000000000000D+00 -.838190317154D-08  .150000000000D+02
     .360000000000D+05  .400000000000D+01
